OBJECT_NAME,OBJECT_ID,EPOCH,MEAN_MOTION,ECCENTRICITY,INCLINATION,RA_OF_ASC_NODE,ARG_OF_PERICENTER,MEAN_ANOMALY,EPHEMERIS_TYPE,CLASSIFICATION_TYPE,NORAD_CAT_ID,ELEMENT_SET_NO,REV_AT_EPOCH,BSTAR,MEAN_MOTION_DOT,MEAN_MOTION_DDOT
HST,1990-037B,2026-07-16T05:12:59.861664,15.31066694,.0002182,28.4722,242.1156,113.0880,246.9946,0,U,20580,999,79302,.95693E-4,.3185E-4,0
POLAR,1996-013A,2026-07-14T18:22:21.811008,1.29846068,.64980873,79.8911,226.7248,208.1291,91.6735,0,U,23802,999,14521,0,.202E-5,0
SWAS,1998-071A,2026-07-16T00:52:34.720608,15.09750069,.0007907,69.8942,153.1138,229.6000,130.4475,0,U,25560,999,50162,.10217E-3,.1548E-4,0
CXO,1999-040B,2026-07-17T11:15:10.202112,0.37805709,.7787022,56.6226,115.7943,310.0504,0.5333,0,U,25867,999,1743,0,.598E-5,0
XMM-NEWTON,1999-066A,2026-07-18T06:21:44.482752,0.50127855,.46650361,64.3180,282.5861,64.3602,359.9798,0,U,25989,999,2315,0,-.5E-7,0
TERRA,1999-068A,2026-07-16T04:43:16.506048,14.61124131,.0003454,97.9441,245.5905,120.6874,331.5676,0,U,25994,999,41384,.43981E-4,.172E-5,0
CLUSTER II-FM7 (SAMBA),2000-041A,2026-07-16T03:20:59.007840,0.44844033,.90886903,149.8273,56.2567,273.7641,359.2168,0,U,26410,999,2044,0,.51232E-3,-.58450349E-4
CLUSTER II-FM8 (TANGO),2000-045B,2026-07-14T10:49:09.907104,0.44416740,.9090382,150.0346,57.1658,274.4944,1.9905,0,U,26464,999,2043,0,.19808E-3,0
ODIN,2001-007A,2026-07-16T02:59:18.555648,15.90027591,.0005116,97.3718,240.1907,154.6659,205.4866,0,U,26702,999,39397,.91398E-3,.271731E-2,.29034E-4
TIMED,2001-055B,2026-07-16T02:40:16.118688,14.95345646,.0002255,74.0666,176.7773,299.7159,60.3801,0,U,26998,999,33514,.53091E-4,.546E-5,0
CORIOLIS,2003-001A,2026-07-16T00:24:56.333088,14.19951986,.0014952,98.7135,203.4625,126.9862,233.2685,0,U,27640,999,21831,.36149E-4,.33E-6,0
SORCE,2003-004A,2026-07-16T03:51:48.589920,15.03844345,.0018753,39.9912,96.3508,260.9302,98.9370,0,U,27651,999,27626,.1003E-3,.1256E-4,0
MOST,2003-031D,2026-07-16T00:05:03.797088,14.21327808,.001013,98.7053,204.3279,162.7882,197.3640,0,U,27843,999,19480,.24808E-4,.1E-6,0
SCISAT 1,2003-036A,2026-07-16T04:41:34.389888,14.81479508,.000732,73.9301,113.7073,181.5592,178.5563,0,U,27858,999,23574,.3737E-4,.256E-5,0
SWIFT,2004-047A,2026-07-15T11:10:37.909920,15.71188268,.0002205,20.5527,326.3099,28.4870,331.5697,0,U,28485,999,19131,.30635095E-3,.41696E-3,0
HINODE (SOLAR-B),2006-041A,2026-07-16T00:06:55.725696,14.68658799,.0017093,98.0548,212.7325,191.8472,168.2333,0,U,29479,999,5910,.56318E-4,.279E-5,0
SHIJIAN-6 02A (SJ-6 02A),2006-046A,2026-07-16T04:17:03.917184,15.17253562,.0004237,97.6342,238.4657,61.2864,298.8794,0,U,29505,999,7666,.18208E-3,.3555E-4,0
SHIJIAN-6 02B (SJ-6 02B),2006-046B,2026-07-16T03:17:32.432352,15.01438773,.0013292,97.7141,226.0163,333.0097,27.0434,0,U,29506,999,7508,.40649E-4,.464E-5,0
FGRST (GLAST),2008-029A,2026-07-16T04:02:55.303296,15.24079653,.0007805,25.5830,3.2274,311.3181,48.6686,0,U,33053,999,11,.63099E-4,.1913E-4,0
SDO,2010-005A,2026-07-15T08:15:29.770848,1.00277108,.00018358,34.7081,85.9138,46.0485,182.8654,0,U,36395,999,6034,0,-.103E-5,0
CRYOSAT 2,2010-013A,2026-07-16T03:58:47.470080,14.51898607,.0002405,92.0358,284.3465,98.6971,261.4508,0,U,36508,999,86228,.28175E-4,.116E-5,0
X-SAT,2011-015C,2026-07-16T05:17:10.823424,14.25213465,.0012713,98.3524,172.8636,257.7022,102.2735,0,U,37389,999,79181,-.26203E-4,-.103E-5,0
GCOM-W1 (SHIZUKU),2012-025A,2026-07-15T20:59:55.579776,14.57090500,.0001302,98.2024,136.9968,78.0138,349.2281,0,U,38337,999,75321,.53474E-4,.196E-5,0
NUSTAR,2012-031A,2026-07-16T00:00:02.000160,15.09046623,.00077747,6.0245,177.9673,185.1070,247.5534,0,U,38358,999,130,.23478178E-3,.469E-4,0
NEOSSAT,2013-009D,2026-07-15T18:44:30.424416,14.35835788,.00114807,98.4190,16.1354,155.5744,204.5989,0,U,39089,999,70084,.31660367E-4,.49E-6,0
BRITE-AUSTRIA,2013-009F,2026-07-15T18:22:01.530336,14.36552666,.00107934,98.4008,15.4957,149.0396,211.1429,0,U,39091,999,70115,.39947583E-4,.75E-6,0
IRIS,2013-033A,2026-07-16T02:54:16.846848,14.85937879,.0023387,97.9319,36.3068,221.8071,138.1358,0,U,39197,999,70467,.6354E-4,.501E-5,0
HISAKI (SPRINT-A),2013-049A,2026-07-15T22:12:03.805056,13.55546789,.01369851,29.7213,73.9016,249.7982,108.7810,0,U,39253,999,63532,.29468026E-4,.89E-6,0
CASSIOPE,2013-055A,2026-07-15T22:31:17.931072,15.27448387,.02827423,80.9127,31.7343,325.3550,32.9538,0,U,39265,999,67205,.19799458E-3,.18495E-3,-.538735E-6
STSAT-3,2013-066G,2026-07-16T05:01:35.472576,15.02889596,.00089,97.6191,166.6294,301.3982,58.6372,0,U,39422,999,68856,.1323E-3,.1715E-4,0
SWARM B,2013-067A,2026-07-16T03:13:02.186112,15.28720628,.0002278,87.7460,333.5233,83.3154,276.8354,0,U,39451,999,68766,.69018E-4,.1962E-4,0
