HST                     
1 20580U 90037B   26197.21735951  .00003185  00000+0  95693-4 0  9994
2 20580  28.4722 242.1156 0002182 113.0880 246.9946 15.31066694793029
POLAR                   
1 23802U 96013A   26195.76553022  .00000202  00000+0  00000+0 0  9999
2 23802  79.8911 226.7248 6498087 208.1291  91.6735  1.29846068145216
SWAS                    
1 25560U 98071A   26197.03651297  .00001548  00000+0  10217-3 0  9992
2 25560  69.8942 153.1138 0007907 229.6000 130.4475 15.09750069501622
CXO                     
1 25867U 99040B   26198.46886808  .00000598  00000+0  00000+0 0  9994
2 25867  56.6226 115.7943 7787022 310.0504   0.5333  0.37805709 17431
XMM-NEWTON              
1 25989U 99066A   26199.26509818 -.00000005  00000+0  00000+0 0  9993
2 25989  64.3180 282.5861 4665036  64.3602 359.9798  0.50127855 23154
TERRA                   
1 25994U 99068A   26197.19671882  .00000172  00000+0  43981-4 0  9996
2 25994  97.9441 245.5905 0003454 120.6874 331.5676 14.61124131413844
CLUSTER II-FM7 (SAMBA)  
1 26410U 00041A   26197.13957185  .00051232 -58450-4  00000+0 0  9991
2 26410 149.8273  56.2567 9088690 273.7641 359.2168  0.44844033 20444
CLUSTER II-FM8 (TANGO)  
1 26464U 00045B   26195.45080911  .00019808  00000+0  00000+0 0  9996
2 26464 150.0346  57.1658 9090382 274.4944   1.9905  0.44416740 20433
ODIN                    
1 26702U 01007A   26197.12452032  .00271731  29034-4  91398-3 0  9995
2 26702  97.3718 240.1907 0005116 154.6659 205.4866 15.90027591393977
TIMED                   
1 26998U 01055B   26197.11129767  .00000546  00000+0  53091-4 0  9990
2 26998  74.0666 176.7773 0002255 299.7159  60.3801 14.95345646335140
CORIOLIS                
1 27640U 03001A   26197.01731867  .00000033  00000+0  36149-4 0  9993
2 27640  98.7135 203.4625 0014952 126.9862 233.2685 14.19951986218318
SORCE                   
1 27651U 03004A   26197.16097905  .00001256  00000+0  10030-3 0  9990
2 27651  39.9912  96.3508 0018753 260.9302  98.9370 15.03844345276269
MOST                    
1 27843U 03031D   26197.00351617  .00000010  00000+0  24808-4 0  9995
2 27843  98.7053 204.3279 0010130 162.7882 197.3640 14.21327808194802
SCISAT 1                
1 27858U 03036A   26197.19553692  .00000256  00000+0  37370-4 0  9993
2 27858  73.9301 113.7073 0007320 181.5592 178.5563 14.81479508235743
SWIFT                   
1 28485U 04047A   26196.46571655  .00041696  00000+0  30635-3 0  9990
2 28485  20.5527 326.3099 0002205  28.4870 331.5697 15.71188268191316
HINODE (SOLAR-B)        
1 29479U 06041A   26197.00481164  .00000279  00000+0  56318-4 0  9995
2 29479  98.0548 212.7325 0017093 191.8472 168.2333 14.68658799 59105
SHIJIAN-6 02A (SJ-6 02A)
1 29505U 06046A   26197.17851756  .00003555  00000+0  18208-3 0  9991
2 29505  97.6342 238.4657 0004237  61.2864 298.8794 15.17253562 76661
SHIJIAN-6 02B (SJ-6 02B)
1 29506U 06046B   26197.13718093  .00000464  00000+0  40649-4 0  9995
2 29506  97.7141 226.0163 0013292 333.0097  27.0434 15.01438773 75084
FGRST (GLAST)           
1 33053U 08029A   26197.16869564  .00001913  00000+0  63099-4 0  9997
2 33053  25.5830   3.2274 0007805 311.3181  48.6686 15.24079653   117
SDO                     
1 36395U 10005A   26196.34409457 -.00000103  00000+0  00000+0 0  9995
2 36395  34.7081  85.9138 0001835  46.0485 182.8654  1.00277108 60342
CRYOSAT 2               
1 36508U 10013A   26197.16582720  .00000116  00000+0  28175-4 0  9997
2 36508  92.0358 284.3465 0002405  98.6971 261.4508 14.51898607862285
X-SAT                   
1 37389U 11015C   26197.22026416 -.00000103  00000+0 -26203-4 0  9998
2 37389  98.3524 172.8636 0012713 257.7022 102.2735 14.25213465791814
GCOM-W1 (SHIZUKU)       
1 38337U 12025A   26196.87494884  .00000196  00000+0  53474-4 0  9992
2 38337  98.2024 136.9968 0001302  78.0138 349.2281 14.57090500753214
NUSTAR                  
1 38358U 12031A   26197.00002315  .00004690  00000+0  23478-3 0  9995
2 38358   6.0245 177.9673 0007774 185.1070 247.5534 15.09046623  1303
NEOSSAT                 
1 39089U 13009D   26196.78090769  .00000049  00000+0  31660-4 0  9994
2 39089  98.4190  16.1354 0011480 155.5744 204.5989 14.35835788700845
BRITE-AUSTRIA           
1 39091U 13009F   26196.76529549  .00000075  00000+0  39948-4 0  9994
2 39091  98.4008  15.4957 0010793 149.0396 211.1429 14.36552666701154
IRIS                    
1 39197U 13033A   26197.12102832  .00000501  00000+0  63540-4 0  9990
2 39197  97.9319  36.3068 0023387 221.8071 138.1358 14.85937879704673
HISAKI (SPRINT-A)       
1 39253U 13049A   26196.92504404  .00000089  00000+0  29468-4 0  9990
2 39253  29.7213  73.9016 0136985 249.7982 108.7810 13.55546789635324
CASSIOPE                
1 39265U 13055A   26196.93840198  .00018495 -53874-6  19799-3 0  9994
2 39265  80.9127  31.7343 0282742 325.3550  32.9538 15.27448387672052
STSAT-3                 
1 39422U 13066G   26197.20943834  .00001715  00000+0  13230-3 0  9999
2 39422  97.6191 166.6294 0008900 301.3982  58.6372 15.02889596688569
SWARM B                 
1 39451U 13067A   26197.13405308  .00001962  00000+0  69018-4 0  9993
2 39451  87.7460 333.5233 0002278  83.3154 276.8354 15.28720628687660
